[{"OBJECT_NAME":"STARLINK-31029","OBJECT_ID":"2024-002H","EPOCH":"2026-03-09T17:28:20.279136","MEAN_MOTION":15.30194615,"ECCENTRICITY":0.00010166,"INCLINATION":53.1599,"RA_OF_ASC_NODE":229.5833,"ARG_OF_PERICENTER":81.6731,"MEAN_ANOMALY":278.4385,"EPHEMERIS_TYPE":0,"CLASSIFICATION_TYPE":"U","NORAD_CAT_ID":58712,"ELEMENT_SET_NO":999,"REV_AT_EPOCH":12202,"BSTAR":4.1851412e-5,"MEAN_MOTION_DOT":8.8e-6,"MEAN_MOTION_DDOT":0},{"OBJECT_NAME":"HAWK-11C","OBJECT_ID":"2024-247E","EPOCH":"2026-03-09T12:17:35.407968","MEAN_MOTION":15.2884802,"ECCENTRICITY":0.00059001,"INCLINATION":45.0045,"RA_OF_ASC_NODE":114.8762,"ARG_OF_PERICENTER":329.704,"MEAN_ANOMALY":30.3502,"EPHEMERIS_TYPE":0,"CLASSIFICATION_TYPE":"U","NORAD_CAT_ID":62381,"ELEMENT_SET_NO":999,"REV_AT_EPOCH":6774,"BSTAR":0.00033290115,"MEAN_MOTION_DOT":9.223e-5,"MEAN_MOTION_DDOT":0}]
